RADUGA 1 [-]            
1 08513U 75123A   22208.78868760  .00000015  00000+0  00000+0 0  9993
2 08513   6.4477 288.0112 0008449 212.0275 154.6789  1.00260441180707
RADUGA 2 [-]            
1 09416U 76092A   22208.78313321 -.00000056  00000+0  00000+0 0  9996
2 09416   7.1102 289.9864 0025260 358.1080  11.5225  1.00297866115102
RADUGA 3 [-]            
1 10159U 77071A   22208.70761539 -.00000334  00000+0  00000+0 0  9999
2 10159   7.7251 292.5614 0009734 228.8301 148.4148  1.00235793162803
RADUGA 4 [-]            
1 10987U 78073A   22208.89216127  .00000162  00000+0  00000+0 0  9997
2 10987   8.3472 296.0407 0007085   0.4479   7.9322  1.00269028105347
RADUGA 5 [-]            
1 11343U 79035A   22208.91112212 -.00000178  00000+0  00000+0 0  9994
2 11343   8.8052 298.7752 0007599 169.2950 251.1170  1.00272434115118
RADUGA 6 [-]            
1 11708U 80016A   22208.79007883  .00000092  00000+0  00000+0 0  9997
2 11708   9.1627 301.8209 0003716 188.1973 153.7581  1.00326392107904
RADUGA 7 [-]            
1 12003U 80081A   22207.10113128 -.00000205  00000+0  00000+0 0  9999
2 12003   9.3496 303.7745 0009492 253.8567 111.5959  1.00299084109057
RADUGA 8 [-]            
1 12351U 81027A   22208.77371330 -.00000163  00000+0  00000+0 0  9994
2 12351   9.6765 304.3499 0083033 227.5406 132.6047  1.00418807108294
RADUGA 9 [-]            
1 12618U 81069A   22209.02603507  .00000135  00000+0  00000+0 0  9997
2 12618   9.8923 307.2776 0005521 152.0677 261.3469  1.00326755114099
RADUGA 10 [-]           
1 12897U 81102A   22208.90731458 -.00000140  00000+0  00000+0 0  9994
2 12897   9.9777 308.2474 0006932 174.2983 230.6389  1.00291966103100
RADUGA 11 [-]           
1 13669U 82113A   22207.97409449 -.00000098  00000+0  00000+0 0  9995
2 13669  12.0117 321.8766 0037588 252.2556 110.2035  0.97709046107653
RADUGA 12 [-]           
1 13974U 83028A   22208.86091101  .00000009  00000+0  00000+0 0  9992
2 13974  11.1107 317.9573 0004502 126.8946 235.8316  1.00276846155136
RADUGA 13 [-]           
1 14307U 83088A   22208.81299446  .00000002  00000+0  00000+0 0  9999
2 14307  12.2564 323.4187 0015361  49.5055 293.8282  0.98172554104997
RADUGA 14 [-]           
1 14725U 84016A   22208.91098722 -.00000189  00000+0  00000+0 0  9997
2 14725  11.3139 321.6942 0006760 138.4261 259.4816  1.00280719103861
RADUGA 15 [-]           
1 15057U 84063A   22208.70944660 -.00000352  00000+0  00000+0 0  9998
2 15057  11.4354 322.6859 0006904 154.6278 201.9995  1.00328583126852
RADUGA 16 [-]           
1 15946U 85070A   22208.62639576  .00000082  00000+0  00000+0 0  9991
2 15946  11.8910 327.3363 0003520 147.6901 243.3219  1.00274063107984
RADUGA 17 [-]           
1 16250U 85107A   22208.74624517 -.00000290  00000+0  00000+0 0  9995
2 16250  12.0130 328.7117 0015662 176.9341  11.7349  1.00152574137576
RADUGA 18 [-]           
1 16497U 86007A   22209.04632684 -.00000148  00000+0  00000+0 0  9998
2 16497  12.8175 331.4117 0076645 164.2114 195.9930  0.98814562131880
RADUGA 19 [-]           
1 17046U 86082A   22209.08521648 -.00000184  00000+0  00000+0 0  9993
2 17046  13.2408 335.3299 0015050 145.5540 217.1633  0.98462069128971
RADUGA 20 [-]           
1 17611U 87028A   22208.31258406 -.00000099  00000+0  00000+0 0  9991
2 17611  15.2526 338.8616 0032362 135.6218 231.3910  0.95961365124668
RADUGA 21 [-]           
1 18631U 87100A   22208.70744039  .00000115  00000+0  00000+0 0  9998
2 18631  13.3261 336.2123 0004882 125.5804 301.6535  1.00274047126843
RADUGA 22 [-]           
1 19596U 88095A   22208.71214983 -.00000338  00000+0  00000+0 0  9992
2 19596  13.3042 340.4833 0008837 133.8924 219.6284  1.00243166107403
RADUGA 23 [-]           
1 19928U 89030A   22208.54911604  .00000133  00000+0  00000+0 0  9998
2 19928  13.4478 342.3003 0023169 158.7872  36.2212  1.00312751120607
RADUGA-1 1 [-]          
1 20083U 89048A   22208.53364722  .00000014  00000+0  00000+0 0  9991
2 20083  14.1978 345.3512 0023906 114.3803 268.0761  0.98707696117256
RADUGA 24 [-]           
1 20367U 89098A   22208.89216223 -.00000056  00000+0  00000+0 0  9999
2 20367  14.0191 344.5648 0003228 126.3686 227.1581  1.00206247118724
RADUGA 25 [-]           
1 20499U 90016A   22208.74641958 -.00000298  00000+0  00000+0 0  9996
2 20499  13.7886 345.2116 0006988 135.5368  37.3566  1.00203203118666
RADUGA 26 [-]           
1 21016U 90112A   22208.78314591  .00000020  00000+0  00000+0 0  9995
2 21016  14.0963 348.4667 0008787  94.6026 204.2734  1.00308534116015
RADUGA-1 2 [-]          
1 21038U 90116A   22208.48057552  .00000090  00000+0  00000+0 0  9998
2 21038  14.1340 348.5425 0010045 101.6515  78.1343  1.00254783 33090
RADUGA 27 [-]           
1 21132U 91014A   22209.07202300  .00000086  00000+0  00000+0 0  9995
2 21132  14.6444 348.1010 0005601 101.6344 259.5380  1.00267553115066
RADUGA 28 [-]           
1 21821U 91087A   22208.92701375 -.00000347  00000+0  00000+0 0  9990
2 21821  14.4060 351.8071 0009550 120.1696 274.7398  1.00216692112113
RADUGA 29 [-]           
1 22557U 93013A   22209.07202300  .00000118  00000+0  00000+0 0  9994
2 22557  14.6029 355.9843 0008287 111.1136 249.8069  1.00331093107456
RADUGA 30 [-]           
1 22836U 93062A   22208.91145027 -.00000125  00000+0  00000+0 0  9991
2 22836  14.6409 357.9524 0002253  60.5273 292.2857  1.00259428 31759
RADUGA-1 3 [-]          
1 22981U 94008A   22208.91456253 -.00000318  00000+0  00000+0 0  9993
2 22981  14.7175 359.1043 0005961 102.7089 273.3451  1.00260342104279
RADUGA 31 [-]           
1 23010U 94012A   22208.48092432  .00000070  00000+0  00000+0 0  9993
2 23010  14.6861 359.1051 0007133  95.5002  75.6269  1.00316411104101
RADUGA 32 [-]           
1 23448U 94087A   22208.44424492 -.00000129  00000+0  00000+0 0  9997
2 23448  14.6638   1.8133 0004694 178.8145   1.7548  1.00262163118639
RADUGA-1 4 [-]          
1 25642U 99010A   22208.78387083  .00000123  00000+0  00000+0 0  9990
2 25642  15.2090  13.4098 0000593 152.0752  97.4216  1.00284841 85709
RADUGA-1 5 [-]          
1 26477U 00049A   22208.62273830  .00000113  00000+0  00000+0 0  9997
2 26477  13.1485  18.2177 0006962  66.6627 128.4348  1.00263158 80174
RADUGA-1 6 [-]          
1 26936U 01045A   22207.91828628 -.00000101  00000+0  00000+0 0  9994
2 26936  13.3024  24.5248 0016118 156.7313 203.0797  0.97744309 74708
RADUGA-1 7 [-]          
1 28194U 04010A   22208.84077056 -.00000356  00000+0  00000+0 0  9993
2 28194  12.0142  31.3706 0002163 107.1026 238.7870  1.00258387 67175
RADUGA-1M 1 [-]         
1 32373U 07058A   22208.75604919  .00000089  00000+0  00000+0 0  9998
2 32373   6.9814  63.7939 0005239  25.6113 192.6539  0.99392770 38273
RADUGA-1 8 [-]          
1 34264U 09010A   22208.69354500  .00000123  00000+0  00000+0 0  9999
2 34264   9.3024  53.8051 0014923   5.9952 174.3657  0.99821130 48996
RADUGA-1M 2 [+]         
1 36358U 10002A   22209.20952087 -.00000182  00000+0  00000+0 0  9996
2 36358   0.0598 249.7430 0002335 273.4167 303.1100  1.00271358 45779
RADUGA-1M 3 [+]         
1 39375U 13062A   22208.92063428  .00000155  00000+0  00000+0 0  9996
2 39375   2.3312  89.3531 0003052 157.2604  65.3601  1.00274088 31885
